NORAD_CAT_ID,OBJECT_NAME,OBJECT_TYPE,EPOCH,MEAN_MOTION,ECCENTRICITY,INCLINATION,RA_OF_ASC_NODE,ARG_OF_PERICENTER,MEAN_ANOMALY,BSTAR,MEAN_MOTION_DOT,MEAN_MOTION_DDOT,TLE_LINE0,TLE_LINE1,TLE_LINE2,SEMIMAJOR_AXIS,PERIOD,APOGEE,PERIGEE,DECAYED
52284.0,STARLINK-3561,PAYLOAD,2023-11-23 02:28:58,15.08853875,0.0001992,53.2182,259.1953,109.6153,250.5054,0.00021182,3.086e-05,0.0,0 STARLINK-3561,1 52284U 22041Z   23327.10345181  .00003086  00000-0  21182-3 0  9994,2 52284  53.2182 259.1953 0001992 109.6153 250.5054 15.08853875 89271,6917.838,95.437,541.081,538.325,0.0
52284.0,STARLINK-3561,PAYLOAD,2023-11-23 05:39:44,15.08860037,0.0001703,53.2174,258.5961,98.6095,261.509,0.00029871,4.472e-05,0.0,0 STARLINK-3561,1 52284U 22041Z   23327.23592794  .00004472  00000-0  29871-3 0  9995,2 52284  53.2174 258.5961 0001703  98.6095 261.5090 15.08860037 88073,6917.819,95.436,540.862,538.506,0.0
52284.0,STARLINK-3561,PAYLOAD,2023-11-23 19:58:13,15.08825386,0.0001967,53.2183,255.92,112.7747,247.3453,-0.00034216,-5.727e-05,0.0,0 STARLINK-3561,1 52284U 22041Z   23327.83210304 -.00005727  00000-0 -34216-3 0  9990,2 52284  53.2183 255.9200 0001967 112.7747 247.3453 15.08825386 89382,6917.925,95.438,541.151,538.429,0.0
52284.0,STARLINK-3561,PAYLOAD,2023-11-24 02:19:46,15.08835421,0.0001802,53.2172,254.718,109.293,250.8257,-0.00015643,-2.777e-05,0.0,0 STARLINK-3561,1 52284U 22041Z   23328.09706310 -.00002777  00000-0 -15643-3 0  9991,2 52284  53.2172 254.7180 0001802 109.2930 250.8257 15.08835421 89424,6917.894,95.438,541.006,538.513,0.0
52284.0,STARLINK-3561,PAYLOAD,2023-11-24 19:49:01,15.08829518,0.0002384,53.2179,251.4585,129.4513,230.669,0.00018365,2.635e-05,0.0,0 STARLINK-3561,1 52284U 22041Z   23328.82570810  .00002635  00000-0  18365-3 0  9991,2 52284  53.2179 251.4585 0002384 129.4513 230.6690 15.08829518 88315,6917.912,95.438,541.427,538.128,0.0
52284.0,STARLINK-3561,PAYLOAD,2023-11-25 03:45:56,15.08848518,0.0002121,53.2182,249.9711,124.3492,235.7701,0.00034797,5.255e-05,0.0,0 STARLINK-3561,1 52284U 22041Z   23329.15690178  .00005255  00000-0  34797-3 0  9996,2 52284  53.2182 249.9711 0002121 124.3492 235.7701 15.08848518 89581,6917.854,95.437,541.187,538.252,0.0
52284.0,STARLINK-3561,PAYLOAD,2023-11-26 03:36:42,15.08877857,0.0001729,53.2176,245.5108,120.2088,239.9075,0.0010282,0.00016131,0.0,0 STARLINK-3561,1 52284U 22041Z   23330.15049449  .00016131  00000-0  10282-2 0  9994,2 52284  53.2176 245.5108 0001729 120.2088 239.9075 15.08877857 89730,6917.765,95.435,540.826,538.434,0.0
52284.0,STARLINK-3561,PAYLOAD,2023-11-26 22:41:21,15.08825532,0.0001786,53.2182,241.9459,125.9724,234.1434,-0.00025303,-4.311e-05,0.0,0 STARLINK-3561,1 52284U 22041Z   23330.94538736 -.00004311  00000-0 -25303-3 0  9993,2 52284  53.2182 241.9459 0001786 125.9724 234.1434 15.08825532 88635,6917.925,95.438,541.025,538.554,0.0
52284.0,STARLINK-3561,PAYLOAD,2023-11-27 03:27:30,15.08836921,0.0001637,53.2176,241.0521,95.225,264.8929,-9.341e-06,-4.37e-06,0.0,0 STARLINK-3561,1 52284U 22041Z   23331.14410853 -.00000437  00000-0 -93410-5 0  9996,2 52284  53.2176 241.0521 0001637  95.2250 264.8929 15.08836921 89888,6917.89,95.438,540.887,538.622,0.0
52284.0,STARLINK-3561,PAYLOAD,2023-11-27 22:32:08,15.08839163,0.0001618,53.2188,237.4801,84.406,275.7117,0.00029657,4.435e-05,0.0,0 STARLINK-3561,1 52284U 22041Z   23331.93899247  .00004435  00000-0  29657-3 0  9991,2 52284  53.2188 237.4801 0001618  84.4060 275.7117 15.08839163 88788,6917.883,95.438,540.867,538.629,0.0
52284.0,STARLINK-3561,PAYLOAD,2023-11-28 00:07:31,15.08853751,0.000156,53.2189,237.1823,101.7488,258.3679,0.00068561,0.00010644,0.0,0 STARLINK-3561,1 52284U 22041Z   23332.00522596  .00010644  00000-0  68561-3 0  9996,2 52284  53.2189 237.1823 0001560 101.7488 258.3679 15.08853751 90011,6917.838,95.437,540.783,538.624,0.0
52284.0,STARLINK-3561,PAYLOAD,2023-11-28 20:47:33,15.08841795,0.0001582,53.2177,233.3223,122.9958,237.1186,0.00032273,4.852e-05,0.0,0 STARLINK-3561,1 52284U 22041Z   23332.86635594  .00004852  00000-0  32273-3 0  9998,2 52284  53.2177 233.3223 0001582 122.9958 237.1186 15.08841795 90148,6917.875,95.437,540.834,538.645,0.0
52284.0,STARLINK-3561,PAYLOAD,2023-11-29 03:09:05,15.08850481,0.0001775,53.2171,232.1304,124.0853,236.0308,0.00041494,6.324e-05,0.0,0 STARLINK-3561,1 52284U 22041Z   23333.13131153  .00006324  00000-0  41494-3 0  9992,2 52284  53.2171 232.1304 0001775 124.0853 236.0308 15.08850481 88963,6917.848,95.437,540.941,538.485,0.0
52284.0,STARLINK-3561,PAYLOAD,2023-11-30 02:59:52,15.08853273,0.0001587,53.2174,227.6682,90.3358,269.7816,0.00022912,3.362e-05,0.0,0 STARLINK-3561,1 52284U 22041Z   23334.12490865  .00003362  00000-0  22912-3 0  9993,2 52284  53.2174 227.6682 0001587  90.3358 269.7816 15.08853273 90333,6917.84,95.437,540.803,538.607,0.0
52284.0,STARLINK-3561,PAYLOAD,2023-12-01 02:50:39,15.08841043,0.0001436,53.2165,223.2099,110.7282,249.3864,0.00010099,1.32e-05,0.0,0 STARLINK-3561,1 52284U 22041Z   23335.11851498  .00001320  00000-0  10099-3 0  9991,2 52284  53.2165 223.2099 0001436 110.7282 249.3864 15.08841043 90488,6917.877,95.437,540.736,538.749,0.0
52284.0,STARLINK-3561,PAYLOAD,2023-12-01 21:55:16,15.08856254,0.0001708,53.216,219.6428,121.3086,238.8073,0.00044942,6.875e-05,0.0,0 STARLINK-3561,1 52284U 22041Z   23335.91338819  .00006875  00000-0  44942-3 0  9990,2 52284  53.2160 219.6428 0001708 121.3086 238.8073 15.08856254 89382,6917.831,95.437,540.877,538.514,0.0
52284.0,STARLINK-3561,PAYLOAD,2023-12-02 20:10:41,15.0883617,0.0001745,53.2156,215.4798,124.6191,235.4965,-5.128e-05,-1.104e-05,0.0,0 STARLINK-3561,1 52284U 22041Z   23336.84075807 -.00001104  00000-0 -51280-4 0  9994,2 52284  53.2156 215.4798 0001745 124.6191 235.4965 15.08836170 90745,6917.892,95.438,540.964,538.55,0.0
52284.0,STARLINK-3561,PAYLOAD,2023-12-02 21:46:04,15.08823471,0.0001251,53.2157,215.1821,90.615,269.4985,-0.00028306,-4.788e-05,0.0,0 STARLINK-3561,1 52284U 22041Z   23336.90700182 -.00004788  00000-0 -28306-3 0  9995,2 52284  53.2157 215.1821 0001251  90.6150 269.4985 15.08823471 89533,6917.931,95.439,540.661,538.93,0.0
52284.0,STARLINK-3561,PAYLOAD,2023-12-04 00:47:40,15.08789953,0.0001384,53.2152,210.1282,119.4081,240.7049,-0.00065316,-0.00010654,0.0,0 STARLINK-3561,1 52284U 22041Z   23338.03310524 -.00010654  00000-0 -65316-3 0  9999,2 52284  53.2152 210.1282 0001384 119.4081 240.7049 15.08789953 90928,6918.033,95.441,540.856,538.941,0.0
52284.0,STARLINK-3561,PAYLOAD,2023-12-04 15:06:08,15.08833128,0.0001044,53.2157,207.4499,86.3798,273.7313,0.00034264,5.168e-05,0.0,0 STARLINK-3561,1 52284U 22041Z   23338.62926098  .00005168  00000-0  34264-3 0  9993,2 52284  53.2157 207.4499 0001044  86.3798 273.7313 15.08833128 89799,6917.901,95.438,540.489,539.044,0.0
52284.0,STARLINK-3561,PAYLOAD,2023-12-05 00:38:26,15.08844753,0.0001506,53.2159,205.6698,73.3722,286.7435,0.00035024,5.291e-05,0.0,0 STARLINK-3561,1 52284U 22041Z   23339.02669031  .00005291  00000-0  35024-3 0  9991,2 52284  53.2159 205.6698 0001506  73.3722 286.7435 15.08844753 91077,6917.866,95.437,540.773,538.689,0.0
52284.0,STARLINK-3561,PAYLOAD,2023-12-06 14:47:40,15.0885148,0.0001304,53.2165,198.5306,99.5816,260.5323,0.00014328,1.994e-05,0.0,0 STARLINK-3561,1 52284U 22041Z   23340.61643698  .00001994  00000-0  14328-3 0  9999,2 52284  53.2165 198.5306 0001304  99.5816 260.5323 15.08851480 90092,6917.845,95.437,540.612,538.808,0.0
52284.0,STARLINK-3561,PAYLOAD,2023-12-07 00:19:58,15.08852235,0.0001173,53.218,196.7472,113.2727,246.8389,-0.00011536,-2.124e-05,0.0,0 STARLINK-3561,1 52284U 22041Z   23341.01387611 -.00002124  00000-0 -11536-3 0  9990,2 52284  53.2180 196.7472 0001173 113.2727 246.8389 15.08852235 90157,6917.843,95.437,540.519,538.897,0.0
52284.0,STARLINK-3561,PAYLOAD,2023-12-08 00:10:47,15.08837731,0.0001502,53.216,192.2883,75.878,284.2379,2.9297e-05,1.78e-06,0.0,0 STARLINK-3561,1 52284U 22041Z   23342.00748870  .00000178  00000-0  29297-4 0  9997,2 52284  53.2160 192.2883 0001502  75.8780 284.2379 15.08837731 91521,6917.887,95.438,540.791,538.713,0.0
52284.0,STARLINK-3561,PAYLOAD,2023-12-09 12:44:38,15.08836084,0.000148,53.2163,185.4474,82.8458,277.2702,-1.2658e-05,-4.89e-06,0.0,0 STARLINK-3561,1 52284U 22041Z   23343.53100572 -.00000489  00000-0 -12658-4 0  9997,2 52284  53.2163 185.4474 0001480  82.8458 277.2702 15.08836084 90531,6917.892,95.438,540.781,538.734,0.0
52284.0,STARLINK-3561,PAYLOAD,2023-12-09 15:55:25,15.0883459,0.0001281,53.2161,184.8517,91.1604,268.9535,-3.7418e-05,-8.83e-06,0.0,0 STARLINK-3561,1 52284U 22041Z   23343.66348601 -.00000883  00000-0 -37418-4 0  9997,2 52284  53.2161 184.8517 0001281  91.1604 268.9535 15.08834590 91773,6917.897,95.438,540.648,538.876,0.0
52284.0,STARLINK-3561,PAYLOAD,2023-12-09 22:16:57,15.08836653,0.0001654,53.2158,183.6596,91.8395,268.2786,-4.3997e-05,-9.88e-06,0.0,0 STARLINK-3561,1 52284U 22041Z   23343.92844576 -.00000988  00000-0 -43997-4 0  9993,2 52284  53.2158 183.6596 0001654  91.8395 268.2786 15.08836653 90593,6917.891,95.438,540.9,538.611,0.0
52284.0,STARLINK-3561,PAYLOAD,2023-12-10 18:56:58,15.0883202,0.0001274,53.2161,179.7964,93.3691,266.7447,5.1413e-05,5.3e-06,0.0,0 STARLINK-3561,1 52284U 22041Z   23344.78956474  .00000530  00000-0  51413-4 0  9992,2 52284  53.2161 179.7964 0001274  93.3691 266.7447 15.08832020 91947,6917.905,95.438,540.651,538.888,0.0
52284.0,STARLINK-3561,PAYLOAD,2023-12-10 20:32:21,15.08832466,0.0001276,53.2163,179.4994,85.1102,275.0036,5.5237e-05,5.91e-06,0.0,0 STARLINK-3561,1 52284U 22041Z   23344.85580476  .00000591  00000-0  55237-4 0  9990,2 52284  53.2163 179.4994 0001276  85.1102 275.0036 15.08832466 90734,6917.903,95.438,540.651,538.886,0.0
52284.0,STARLINK-3561,PAYLOAD,2023-12-11 20:23:08,15.08837578,0.0001281,53.2163,175.0391,83.4242,276.6895,8.287e-05,1.031e-05,0.0,0 STARLINK-3561,1 52284U 22041Z   23345.84940436  .00001031  00000-0  82870-4 0  9999,2 52284  53.2163 175.0391 0001281  83.4242 276.6895 15.08837578 92101,6917.888,95.438,540.639,538.867,0.0
